#Pass ID: 20260116_043551_AQUA
#Satellite: AQUA
#Configuration: AQUA
#almurnet v.1.7.20240730
#Start time: 2026-01-16 04:45:33

#Version: 2.2.20231116
#Station: R3.0SM8_Murmansk_STILSPACE
#Location: 33.092731 lon 68.902999 lat
#TLE: 1 27424U 02022A   26015.51279194  .00000651  00000+0  14022-3 0  9990
#TLE: 2 27424  98.4082 341.9487 0002034  77.6776  33.2672 14.61821775260965

#Time	Az	El	Level	Level2	SNR	BER	BlckErr	Temp	State	Recorded	gain1	gain2
#2026-01-16 04:45:33.642000	device inactive

#Closed at: 2026-01-16 04:45:34
#Recorded file [0 MB]: 